{"type": "FeatureCollection", "features": [ {"type": "Feature", "properties": {"norad_id": 66558, "name": "STARLINK-35695", "group": "last-30-days", "lat": 41.77434796165289, "lon": -128.8800260760729, "alt_km": 411.01509737125616, "timestamp": "2025-12-12T03:50:51.176857+00:00", "meta": {"OBJECT_NAME": "STARLINK-35695", "OBJECT_ID": "2025-268B", "EPOCH": "2025-12-11T14:00:01.999872", "MEAN_MOTION": 15.50668257, "ECCENTRICITY": 0.0003544, "INCLINATION": 42.9998, "RA_OF_ASC_NODE": 127.9587, "ARG_OF_PERICENTER": 263.7088, "MEAN_ANOMALY": 214.0541, "EPHEMERIS_TYPE": 0, "CLASSIFICATION_TYPE": "U", "NORAD_CAT_ID": 66558, "ELEMENT_SET_NO": 999, "REV_AT_EPOCH": 448, "BSTAR": -0.0026715087, "MEAN_MOTION_DOT": -0.00154553, "MEAN_MOTION_DDOT": 0}, "tle": {"line1": "1 66558U 25268B   25345.58335648 -.00154553  00000+0 -26715-2 0  9991", "line2": "2 66558  42.9998 127.9587 0003544 263.7088 214.0541 15.50668257  4480"}}, "geometry": {"type": "Point", "coordinates": [-128.8800260760729, 41.77434796165289]}}, {"type": "Feature", "properties": {"norad_id": 66559, "name": "STARLINK-35419", "group": "last-30-days", "lat": 41.36961660166894, "lon": -126.34572948736215, "alt_km": 409.51192720911604, "timestamp": "2025-12-12T03:50:51.176867+00:00", "meta": {"OBJECT_NAME": "STARLINK-35419", "OBJECT_ID": "2025-268C", "EPOCH": "2025-12-11T14:00:01.999872", "MEAN_MOTION": 15.50503409, "ECCENTRICITY": 0.00015923, "INCLINATION": 42.9998, "RA_OF_ASC_NODE": 127.9548, "ARG_OF_PERICENTER": 269.2908, "MEAN_ANOMALY": 210.4831, "EPHEMERIS_TYPE": 0, "CLASSIFICATION_TYPE": "U", "NORAD_CAT_ID": 66559, "ELEMENT_SET_NO": 999, "REV_AT_EPOCH": 448, "BSTAR": 0.0010744243, "MEAN_MOTION_DOT": 0.00063029, "MEAN_MOTION_DDOT": 0}, "tle": {"line1": "1 66559U 25268C   25345.58335648  .00063029  00000+0  10744-2 0  9992", "line2": "2 66559  42.9998 127.9548 0001592 269.2908 210.4831 15.50503409  4480"}}, "geometry": {"type": "Point", "coordinates": [-126.34572948736215, 41.36961660166894]}}, {"type": "Feature", "properties": {"norad_id": 66560, "name": "STARLINK-35411", "group": "last-30-days", "lat": 40.9287453753448, "lon": -123.94280647981209, "alt_km": 409.73689165338783, "timestamp": "2025-12-12T03:50:51.176881+00:00", "meta": {"OBJECT_NAME": "STARLINK-35411", "OBJECT_ID": "2025-268D", "EPOCH": "2025-12-11T14:00:01.999872", "MEAN_MOTION": 15.50508267, "ECCENTRICITY": 0.00018373, "INCLINATION": 42.9998, "RA_OF_ASC_NODE": 127.95, "ARG_OF_PERICENTER": 268.0294, "MEAN_ANOMALY": 213.607, "EPHEMERIS_TYPE": 0, "CLASSIFICATION_TYPE": "U", "NORAD_CAT_ID": 66560, "ELEMENT_SET_NO": 999, "REV_AT_EPOCH": 448, "BSTAR": 0.00096466707, "MEAN_MOTION_DOT": 0.00056518, "MEAN_MOTION_DDOT": 0}, "tle": {"line1": "1 66560U 25268D   25345.58335648  .00056518  00000+0  96467-3 0  9996", "line2": "2 66560  42.9998 127.9500 0001837 268.0294 213.6070 15.50508267  4484"}}, "geometry": {"type": "Point", "coordinates": [-123.94280647981209, 40.9287453753448]}}, {"type": "Feature", "properties": {"norad_id": 66561, "name": "STARLINK-35305", "group": "last-30-days", "lat": 39.852645031302686, "lon": -119.04446843497587, "alt_km": 410.09193243878235, "timestamp": "2025-12-12T03:50:51.176890+00:00", "meta": {"OBJECT_NAME": "STARLINK-35305", "OBJECT_ID": "2025-268E", "EPOCH": "2025-12-11T14:00:01.999872", "MEAN_MOTION": 15.50671788, "ECCENTRICITY": 0.00013442, "INCLINATION": 42.9997, "RA_OF_ASC_NODE": 127.9403, "ARG_OF_PERICENTER": 275.445, "MEAN_ANOMALY": 210.0657, "EPHEMERIS_TYPE": 0, "CLASSIFICATION_TYPE": "U", "NORAD_CAT_ID": 66561, "ELEMENT_SET_NO": 999, "REV_AT_EPOCH": 443, "BSTAR": -0.0037608812, "MEAN_MOTION_DOT": -0.00215717, "MEAN_MOTION_DDOT": 0}, "tle": {"line1": "1 66561U 25268E   25345.58335648 -.00215717  00000+0 -37609-2 0  9999", "line2": "2 66561  42.9997 127.9403 0001344 275.4450 210.0657 15.50671788  4431"}}, "geometry": {"type": "Point", "coordinates": [-119.04446843497587, 39.852645031302686]}}, {"type": "Feature", "properties": {"norad_id": 66562, "name": "STARLINK-35579", "group": "last-30-days", "lat": 40.411808156759875, "lon": -121.45216100478693, "alt_km": 410.0716602753655, "timestamp": "2025-12-12T03:50:51.176900+00:00", "meta": {"OBJECT_NAME": "STARLINK-35579", "OBJECT_ID": "2025-268F", "EPOCH": "2025-12-11T14:00:01.999872", "MEAN_MOTION": 15.50630066, "ECCENTRICITY": 0.00015643, "INCLINATION": 42.9998, "RA_OF_ASC_NODE": 127.9447, "ARG_OF_PERICENTER": 268.7043, "MEAN_ANOMALY": 214.9089, "EPHEMERIS_TYPE": 0, "CLASSIFICATION_TYPE": "U", "NORAD_CAT_ID": 66562, "ELEMENT_SET_NO": 999, "REV_AT_EPOCH": 448, "BSTAR": -0.00288493, "MEAN_MOTION_DOT": -0.00166346, "MEAN_MOTION_DDOT": 0}, "tle": {"line1": "1 66562U 25268F   25345.58335648 -.00166346  00000+0 -28849-2 0  9999", "line2": "2 66562  42.9998 127.9447 0001564 268.7043 214.9089 15.50630066  4489"}}, "geometry": {"type": "Point", "coordinates": [-121.45216100478693, 40.411808156759875]}}, {"type": "Feature", "properties": {"norad_id": 66563, "name": "STARLINK-35437", "group": "last-30-days", "lat": 39.2496525700587, "lon": -116.69698310267947, "alt_km": 410.2054714929127, "timestamp": "2025-12-12T03:50:51.176910+00:00", "meta": {"OBJECT_NAME": "STARLINK-35437", "OBJECT_ID": "2025-268G", "EPOCH": "2025-12-11T14:00:01.999872", "MEAN_MOTION": 15.5062557, "ECCENTRICITY": 0.00015707, "INCLINATION": 42.9998, "RA_OF_ASC_NODE": 127.9352, "ARG_OF_PERICENTER": 266.3482, "MEAN_ANOMALY": 221.1006, "EPHEMERIS_TYPE": 0, "CLASSIFICATION_TYPE": "U", "NORAD_CAT_ID": 66563, "ELEMENT_SET_NO": 999, "REV_AT_EPOCH": 448, "BSTAR": -0.0027559411, "MEAN_MOTION_DOT": -0.00159045, "MEAN_MOTION_DDOT": 0}, "tle": {"line1": "1 66563U 25268G   25345.58335648 -.00159045  00000+0 -27559-2 0  9995", "line2": "2 66563  42.9998 127.9352 0001570 266.3482 221.1006 15.50625570  4486"}}, "geometry": {"type": "Point", "coordinates": [-116.69698310267947, 39.2496525700587]}}, {"type": "Feature", "properties": {"norad_id": 66564, "name": "STARLINK-35358", "group": "last-30-days", "lat": 38.598205407622466, "lon": -114.38480831332669, "alt_km": 410.2956895272937, "timestamp": "2025-12-12T03:50:51.176920+00:00", "meta": {"OBJECT_NAME": "STARLINK-35358", "OBJECT_ID": "2025-268H", "EPOCH": "2025-12-11T14:00:01.999872", "MEAN_MOTION": 15.50629289, "ECCENTRICITY": 0.00015496, "INCLINATION": 42.9997, "RA_OF_ASC_NODE": 127.9305, "ARG_OF_PERICENTER": 266.0209, "MEAN_ANOMALY": 223.3445, "EPHEMERIS_TYPE": 0, "CLASSIFICATION_TYPE": "U", "NORAD_CAT_ID": 66564, "ELEMENT_SET_NO": 999, "REV_AT_EPOCH": 443, "BSTAR": -0.0028946126, "MEAN_MOTION_DOT": -0.00166887, "MEAN_MOTION_DDOT": 0}, "tle": {"line1": "1 66564U 25268H   25345.58335648 -.00166887  00000+0 -28946-2 0  9999", "line2": "2 66564  42.9997 127.9305 0001549 266.0209 223.3445 15.50629289  4431"}}, "geometry": {"type": "Point", "coordinates": [-114.38480831332669, 38.598205407622466]}}, {"type": "Feature", "properties": {"norad_id": 66565, "name": "STARLINK-35893", "group": "last-30-days", "lat": 37.90026061771072, "lon": -112.1101897791244, "alt_km": 410.39825807803027, "timestamp": "2025-12-12T03:50:51.176930+00:00", "meta": {"OBJECT_NAME": "STARLINK-35893", "OBJECT_ID": "2025-268J", "EPOCH": "2025-12-11T14:00:01.999872", "MEAN_MOTION": 15.5062588, "ECCENTRICITY": 0.00015826, "INCLINATION": 42.9998, "RA_OF_ASC_NODE": 127.9255, "ARG_OF_PERICENTER": 265.5569, "MEAN_ANOMALY": 225.7291, "EPHEMERIS_TYPE": 0, "CLASSIFICATION_TYPE": "U", "NORAD_CAT_ID": 66565, "ELEMENT_SET_NO": 999, "REV_AT_EPOCH": 448, "BSTAR": -0.0028054036, "MEAN_MOTION_DOT": -0.00161839, "MEAN_MOTION_DDOT": 0}, "tle": {"line1": "1 66565U 25268J   25345.58335648 -.00161839  00000+0 -28054-2 0  9992", "line2": "2 66565  42.9998 127.9255 0001582 265.5569 225.7291 15.50625880  4480"}}, "geometry": {"type": "Point", "coordinates": [-112.1101897791244, 37.90026061771072]}}, {"type": "Feature", "properties": {"norad_id": 66566, "name": "STARLINK-35871", "group": "last-30-days", "lat": 37.15370357943585, "lon": -109.86399834012944, "alt_km": 410.1825250258653, "timestamp": "2025-12-12T03:50:51.176940+00:00", "meta": {"OBJECT_NAME": "STARLINK-35871", "OBJECT_ID": "2025-268K", "EPOCH": "2025-12-11T14:00:01.999872", "MEAN_MOTION": 15.50485517, "ECCENTRICITY": 0.00014999, "INCLINATION": 42.9998, "RA_OF_ASC_NODE": 127.9205, "ARG_OF_PERICENTER": 284.7393, "MEAN_ANOMALY": 208.4981, "EPHEMERIS_TYPE": 0, "CLASSIFICATION_TYPE": "U", "NORAD_CAT_ID": 66566, "ELEMENT_SET_NO": 999, "REV_AT_EPOCH": 448, "BSTAR": 0.0010019731, "MEAN_MOTION_DOT": 0.00058685, "MEAN_MOTION_DDOT": 0}, "tle": {"line1": "1 66566U 25268K   25345.58335648  .00058685  00000+0  10020-2 0  9999", "line2": "2 66566  42.9998 127.9205 0001499 284.7393 208.4981 15.50485517  4486"}}, "geometry": {"type": "Point", "coordinates": [-109.86399834012944, 37.15370357943585]}}, {"type": "Feature", "properties": {"norad_id": 66567, "name": "STARLINK-35825", "group": "last-30-days", "lat": 36.374486426559024, "lon": -107.6873643395203, "alt_km": 410.58971869772085, "timestamp": "2025-12-12T03:50:51.176953+00:00", "meta": {"OBJECT_NAME": "STARLINK-35825", "OBJECT_ID": "2025-268L", "EPOCH": "2025-12-11T14:00:01.999872", "MEAN_MOTION": 15.50679698, "ECCENTRICITY": 0.00012817, "INCLINATION": 42.9997, "RA_OF_ASC_NODE": 127.9161, "ARG_OF_PERICENTER": 277.3844, "MEAN_ANOMALY": 217.7121, "EPHEMERIS_TYPE": 0, "CLASSIFICATION_TYPE": "U", "NORAD_CAT_ID": 66567, "ELEMENT_SET_NO": 999, "REV_AT_EPOCH": 448, "BSTAR": -0.0039771129, "MEAN_MOTION_DOT": -0.00227815, "MEAN_MOTION_DDOT": 0}, "tle": {"line1": "1 66567U 25268L   25345.58335648 -.00227815  00000+0 -39771-2 0  9999", "line2": "2 66567  42.9997 127.9161 0001281 277.3844 217.7121 15.50679698  4489"}}, "geometry": {"type": "Point", "coordinates": [-107.6873643395203, 36.374486426559024]}}]}